[{"OBJECT_NAME":"STARLINK-34909","OBJECT_ID":"2025-191Y","EPOCH":"2026-03-09T15:21:20.513664","MEAN_MOTION":15.05650911,"ECCENTRICITY":0.0002553,"INCLINATION":97.6021,"RA_OF_ASC_NODE":301.5048,"ARG_OF_PERICENTER":79.2579,"MEAN_ANOMALY":280.8935,"EPHEMERIS_TYPE":0,"CLASSIFICATION_TYPE":"U","NORAD_CAT_ID":65401,"ELEMENT_SET_NO":999,"REV_AT_EPOCH":3027,"BSTAR":0.00036068,"MEAN_MOTION_DOT":5.148e-5,"MEAN_MOTION_DDOT":0},{"OBJECT_NAME":"FREGAT DEB [TANK]","OBJECT_ID":"2015-074D","EPOCH":"2026-03-09T08:57:03.841632","MEAN_MOTION":13.43333428,"ECCENTRICITY":0.11281977,"INCLINATION":50.2967,"RA_OF_ASC_NODE":115.1399,"ARG_OF_PERICENTER":334.4229,"MEAN_ANOMALY":20.4713,"EPHEMERIS_TYPE":0,"CLASSIFICATION_TYPE":"U","NORAD_CAT_ID":41108,"ELEMENT_SET_NO":999,"REV_AT_EPOCH":43643,"BSTAR":0.0010091226,"MEAN_MOTION_DOT":0.00079957,"MEAN_MOTION_DDOT":6.680944e-6}]
